COSMOS 1892             
1 18421U 87088A   21197.48674533  .00000583  00000-0  27219-4 0  9998
2 18421  82.4991 243.4116 0016091 133.2986 226.9593 15.17708297844527
SL-14 R/B               
1 18749U 88001B   21197.94585432  .00000068  00000-0  52971-5 0  9999
2 18749  82.5151 347.9342 0020275  79.2333  39.0236 14.83266236811440
COSMOS 1933             
1 18958U 88020A   21197.23702278  .00000274  00000-0  17770-4 0  9999
2 18958  82.5304 105.2862 0010026 249.2480 110.7672 15.03957308794260
SL-3 R/B                
1 19046U 88032B   21197.50001918  .00000521  00000-0  42618-4 0  9998
2 19046  97.3879 206.6991 0035759 305.0039  54.7832 15.02969810796144
SL-16 R/B               
1 19120U 88039B   21198.02987517 -.00000176  00000-0 -60949-4 0  9999
2 19120  71.0151  54.7597 0020036  59.2335 301.0759 14.19222108717904
COSMOS 1953             
1 19210U 88050A   21197.55296707  .00000311  00000-0  19179-4 0  9991
2 19210  82.5167  27.1959 0012729 208.1938 151.8601 15.06316732780987
SL-8 R/B                
1 19257U 88053B   21197.54666177 -.00000030  00000-0 -11405-5 0  9991
2 19257  74.0476 356.3218 0021206 239.2292 183.2814 14.37525604732637
COSMOS 1975             
1 19573U 88093A   21197.48271471  .00000890  00000-0  60335-4 0  9995
2 19573  82.5207 342.4301 0012696 259.0330 100.9468 15.05210985762733
SL-14 R/B               
1 19574U 88093B   21198.04598271  .00000065  00000-0  50478-5 0  9991
2 19574  82.5313 191.0518 0020206 238.7261 180.0147 14.83376866770450
SL-16 R/B               
1 19650U 88102B   21198.07974115 -.00000191  00000-0 -72775-4 0  9990
2 19650  71.0008 120.0878 0012118  70.1487 290.0941 14.15808592687015
INTERCOSMOS 24          
1 20261U 89080A   21197.35460890 -.00000010  00000-0 -39048-5 0  9993
2 20261  82.6077 125.3772 1201210 258.8582  87.5433 12.56218243453450
SL-14 R/B               
1 20262U 89080C   21198.03088312  .00000077  00000-0  13182-4 0  9996
2 20262  82.5927 181.1788 1237894  97.4365 276.8761 12.48972641447825
DELTA 2 R/B(1)          
1 20303U 89085B   21196.99601907  .00003207  00000-0  99368-4 0  9999
2 20303  35.6403  54.8244 0089264  79.8386 281.2396 15.29385545728306
DELTA 1 R/B             
1 20323U 89089B   21197.27790499  .00000022  00000-0  14632-4 0  9995
2 20323  97.1223 287.1112 0073165  72.7078 288.2108 14.48409046649874
ARIANE 40 R/B           
1 20443U 90005H   21198.07707325  .00000012  00000-0  18358-4 0  9991
2 20443  98.5271 264.1213 0009359 243.4902 116.5326 14.38134299649092
DELTA 2 R/B(1)          
1 20453U 90008B   21197.20404677  .00001281  00000-0  72985-4 0  9998
2 20453  35.6253  92.6828 0276864 354.1921   5.5615 14.86608941669801
COSMOS 2058             
1 20465U 90010A   21197.52363727  .00000145  00000-0  99216-5 0  9994
2 20465  82.4884 254.0821 0014169 317.0422  42.9693 14.98236807687322
SL-14 R/B               
1 20466U 90010B   21198.07496482  .00000062  00000-0  48435-5 0  9996
2 20466  82.5022  57.4617 0021859 119.0972 241.2434 14.81429911698219
SL-14 R/B               
1 20511U 90018B   21197.53878946  .00000064  00000-0  54050-5 0  9996
2 20511  82.5231   6.1008 0015921 265.0971 155.2426 14.80084262692507
HST                     
1 20580U 90037B   21197.40489333  .00000396  00000-0  12932-4 0  9997
2 20580  28.4689 233.5133 0002777  20.4663  66.3576 15.09681866515394
SL-16 R/B               
1 20625U 90046B   21197.49770864  .00000287  00000-0  17353-3 0  9998
2 20625  70.9986 261.1051 0014312 355.2130   4.8853 14.14670640608344
COSMOS 2084             
1 20663U 90055A   21197.63275293 -.00000075  00000-0  11394-4 0  9998
2 20663  62.7948 291.8790 0074546  11.0490 349.2219 14.92269318682182
SL-6 R/B(2)             
1 20666U 90055D   21197.41878361 -.00000025  00000-0  16010-4 0  9997
2 20666  62.7830 208.0241 0101917  38.0939 322.7302 14.92516518684094
SL-8 R/B                
1 20775U 90078B   21197.24424427  .00001493  00000-0  69188-4 0  9997
2 20775  82.9257 261.5058 0567652  53.5031 311.7078 14.36062805562220
SL-8 R/B                
1 21088U 91006B   21197.98435924  .00000100  00000-0  85547-4 0  9993
2 21088  82.9433 351.8880 0023925 105.8764  15.9894 13.77172914530786
OKEAN-3                 
1 21397U 91039A   21197.99540989  .00000244  00000-0  20904-4 0  9996
2 21397  82.5222 161.6206 0016212 291.4255  68.5236 14.93123597632192
COSMOS 2151             
1 21422U 91042A   21197.28395517  .00000119  00000-0  91064-5 0  9993
2 21422  82.5004 267.9506 0014076   3.8962 356.2365 14.92273030609560
SL-14 R/B               
1 21423U 91042B   21197.53913844  .00000063  00000-0  52129-5 0  9998
2 21423  82.4939   8.5737 0018776  51.4511 308.8381 14.79833813601943
ERS-1                   
1 21574U 91050A   21197.51585593  .00000023  00000-0  22617-4 0  9992
2 21574  98.6491 158.2046 0032557 193.7357 166.2947 14.37804986571740
ARIANE 40 R/B           
1 21610U 91050F   21197.83588294 -.00000000  00000-0  13501-4 0  9997
2 21610  98.4220 268.1423 0004006 140.2523 333.5716 14.40955747574774
INTERCOSMOS 25          
1 21819U 91086A   21197.65937808  .00000140  00000-0  21987-4 0  9997
2 21819  82.5800 250.0477 1516804 151.8441 217.3866 12.05260010291798
SL-8 R/B                
1 21876U 92008B   21197.80896116  .00000033  00000-0  18862-4 0  9997
2 21876  82.9268  89.3196 0034380 190.7892 235.2126 13.75681820476325
SL-8 R/B                
1 21938U 92020B   21197.49484302  .00000079  00000-0  67005-4 0  9998
2 21938  82.9317 334.0160 0029044 356.9412  70.9254 13.75290577468136
COSMOS 2219             
1 22219U 92076A   21197.49143801 -.00000318  00000-0 -14334-3 0  9992
2 22219  71.0610 324.5622 0020731 272.7210  87.1539 14.13661300478828
SL-16 R/B               
1 22220U 92076B   21197.36529413 -.00000256  00000-0 -10440-3 0  9992
2 22220  70.9996 162.3683 0012323 172.5602 349.5382 14.16472312481450
COSMOS 2221             
1 22236U 92080A   21197.21839645  .00000171  00000-0  15769-4 0  9993
2 22236  82.5080  91.5559 0018192  93.9165 266.4133 14.88072698527820
SL-16 R/B               
1 22285U 92093B   21197.53833054  .00000260  00000-0  15880-3 0  9996
2 22285  71.0225 325.7516 0004146 348.2189  11.8836 14.15061406473051
COSMOS 2228             
1 22286U 92094A   21198.05367519  .00000163  00000-0  14837-4 0  9998
2 22286  82.5191  47.4714 0020316 206.6976 153.3198 14.88297144544206
SL-16 R/B               
1 22566U 93016B   21197.37567630 -.00000318  00000-0 -13988-3 0  9993
2 22566  71.0063 178.8649 0009606  13.0085 347.1283 14.14973587462055
COSMOS 2242             
1 22626U 93024A   21197.73433179  .00000152  00000-0  13778-4 0  9991
2 22626  82.5212  76.0675 0018041 207.5753 152.4509 14.88147757527792
SL-16 R/B               
1 22803U 93059B   21197.49792207 -.00000201  00000-0 -75981-4 0  9990
2 22803  70.9912 348.8408 0019516 275.1914  84.6982 14.16839864439116
ARIANE 40 R/B           
1 22830U 93061H   21197.73890575 -.00000022  00000-0  87051-5 0  9999
2 22830  98.7115 255.3871 0009912 242.6057 117.4118 14.31485722451488
COSMOS 2278             
1 23087U 94023A   21197.26438997  .00000336  00000-0  20242-3 0  9991
2 23087  71.0540 124.5078 0007228 103.9762 256.2165 14.13829225404858
SL-16 R/B               
1 23088U 94023B   21197.52883261 -.00000091  00000-0 -22363-4 0  9996
2 23088  70.9977  33.9799 0003998 324.0997  35.9857 14.14688059406042
SL-16 R/B               
1 23343U 94074B   21198.16980583  .00000018  00000-0  98138-5 0  9993
2 23343  97.9440 252.3472 0006030 329.0589  95.2836 14.76889588436886
SL-16 R/B               
1 23405U 94077B   21197.53184259  .00000197  00000-0  12603-3 0  9990
2 23405  70.9838 321.8517 0004302 242.3630 117.7056 14.15239154376094
ERS-2                   
1 23560U 95021A   21197.55078758  .00000706  00000-0  32854-4 0  9997
2 23560  98.5457  51.7302 0002119 270.9850  89.1141 15.24039789402129
ARIANE 40+ R/B          
1 23561U 95021B   21198.18667372  .00000014  00000-0  19544-4 0  9997
2 23561  98.6722 248.2749 0007466 154.4723 272.6190 14.38035496375520
SL-16 R/B               
1 23705U 95058B   21198.08242933  .00000099  00000-0  75298-4 0  9999
2 23705  71.0210 140.9629 0012862 195.2624 164.8112 14.15151486328102
SL-16 R/B               
1 24298U 96051B   21198.11513031 -.00000200  00000-0 -81822-4 0  9991
2 24298  70.8262 158.3807 0014247 134.4267 225.8022 14.12433971282344
ORBVIEW 2 (SEASTAR)     
1 24883U 97037A   21197.32358119  .00000025  00000-0  25266-4 0  9995
2 24883  98.6458 315.3685 0002925  45.6748 314.4675 14.33623230265145
SL-16 R/B               
1 25400U 98043G   21197.42250154 -.00000020  00000-0  10028-4 0  9996
2 25400  98.6406 132.8436 0008784 267.5423  92.4751 14.25479023197146
SL-16 R/B               
1 25407U 98045B   21198.06725781 -.00000232  00000-0 -93611-4 0  9994
2 25407  71.0109 148.2559 0005229  92.7609 267.4112 14.15838621187203
ISS (ZARYA)             
1 25544U 98067A   21198.23333625  .00002235  00000-0  48999-4 0  9993
2 25544  51.6424 194.1412 0002006 161.8991 286.0127 15.48813802293256
CZ-4B R/B               
1 25732U 99025C   21198.14063347 -.00000021  00000-0  11523-4 0  9993
2 25732  98.8998 234.6613 0037660 163.5181 266.5089 14.17696097147888
OKEAN-O                 
1 25860U 99039A   21198.07333987  .00000017  00000-0  10036-4 0  9994
2 25860  98.1806 229.2245 0001802  78.7124 281.4288 14.76746184183846
SL-16 R/B               
1 25861U 99039B   21198.06230279  .00000017  00000-0  98929-5 0  9992
2 25861  98.2029 214.0046 0014989 335.1680  88.4925 14.78650522186076
DELTA 2 R/B             
1 25876U 99041E   21197.37162991 -.00000074  00000-0  29539-4 0  9993
2 25876  51.7614 195.1053 0531562  53.1077 311.7362 14.04584410123980
HELIOS 1B               
1 25977U 99064A   21198.05743202  .00000036  00000-0  11590-4 0  9991
2 25977  98.3184  13.7423 0002212 120.3975 239.7456 14.82567612164884
